{
  "type": "FeatureCollection",
  "features": [
    {
      "type": "Feature",
      "properties": {
        "norad_id": 66595,
        "name": "STARLINK-35711",
        "group": "last-30-days",
        "lat": 6.688557570491171,
        "lon": -42.50252610294194,
        "alt_km": 417.02114431310474,
        "timestamp": "2025-12-20T22:39:09.405696+00:00",
        "meta_object_name": "STARLINK-35711",
        "meta_object_id": "2025-270H",
        "meta_epoch": "2025-12-20T03:22:00.602400",
        "meta_mean_motion": 15.5018184,
        "meta_eccentricity": 0.00034215,
        "meta_inclination": 42.999,
        "meta_ra_of_asc_node": 149.4265,
        "meta_arg_of_pericenter": 341.0071,
        "meta_mean_anomaly": 19.0661,
        "meta_ephemeris_type": 0,
        "meta_classification_type": "U",
        "meta_norad_cat_id": 66595,
        "meta_element_set_no": 999,
        "meta_rev_at_epoch": 560,
        "meta_bstar": 0.0012292638,
        "meta_mean_motion_dot": 0.00071426,
        "meta_mean_motion_ddot": 0,
        "tle_line1": "1 66595U 25270H   25354.14028475  .00071426  00000+0  12293-2 0  9995",
        "tle_line2": "2 66595  42.9990 149.4265 0003421 341.0071  19.0661 15.50181840  5600"
      },
      "geometry": {
        "type": "Point",
        "coordinates": [
          -42.50252610294194,
          6.688557570491171
        ]
      }
    },
    {
      "type": "Feature",
      "properties": {
        "norad_id": 66596,
        "name": "STARLINK-35811",
        "group": "last-30-days",
        "lat": -34.19152436290519,
        "lon": 12.254320705354086,
        "alt_km": 445.9758628042209,
        "timestamp": "2025-12-20T22:39:09.405705+00:00",
        "meta_object_name": "STARLINK-35811",
        "meta_object_id": "2025-270J",
        "meta_epoch": "2025-12-20T10:44:39.514848",
        "meta_mean_motion": 15.40718424,
        "meta_eccentricity": 0.00013507,
        "meta_inclination": 42.998,
        "meta_ra_of_asc_node": 148.3021,
        "meta_arg_of_pericenter": 251.8242,
        "meta_mean_anomaly": 108.2467,
        "meta_ephemeris_type": 0,
        "meta_classification_type": "U",
        "meta_norad_cat_id": 66596,
        "meta_element_set_no": 999,
        "meta_rev_at_epoch": 564,
        "meta_bstar": 0.00085933251,
        "meta_mean_motion_dot": 0.00035783,
        "meta_mean_motion_ddot": 0,
        "tle_line1": "1 66596U 25270J   25354.44767957  .00035783  00000+0  85933-3 0  9992",
        "tle_line2": "2 66596  42.9980 148.3021 0001350 251.8242 108.2467 15.40718424  5647"
      },
      "geometry": {
        "type": "Point",
        "coordinates": [
          12.254320705354086,
          -34.19152436290519
        ]
      }
    },
    {
      "type": "Feature",
      "properties": {
        "norad_id": 66597,
        "name": "STARLINK-35820",
        "group": "last-30-days",
        "lat": -41.136299378956004,
        "lon": 75.70464452708151,
        "alt_km": 445.55206621242087,
        "timestamp": "2025-12-20T22:39:09.405714+00:00",
        "meta_object_name": "STARLINK-35820",
        "meta_object_id": "2025-270K",
        "meta_epoch": "2025-12-20T12:05:06.576576",
        "meta_mean_motion": 15.40728378,
        "meta_eccentricity": 0.00023281,
        "meta_inclination": 42.9989,
        "meta_ra_of_asc_node": 147.8597,
        "meta_arg_of_pericenter": 279.6537,
        "meta_mean_anomaly": 80.4056,
        "meta_ephemeris_type": 0,
        "meta_classification_type": "U",
        "meta_norad_cat_id": 66597,
        "meta_element_set_no": 999,
        "meta_rev_at_epoch": 565,
        "meta_bstar": 0.0011149945,
        "meta_mean_motion_dot": 0.00046603,
        "meta_mean_motion_ddot": 0,
        "tle_line1": "1 66597U 25270K   25354.50354834  .00046603  00000+0  11150-2 0  9998",
        "tle_line2": "2 66597  42.9989 147.8597 0002328 279.6537  80.4056 15.40728378  5655"
      },
      "geometry": {
        "type": "Point",
        "coordinates": [
          75.70464452708151,
          -41.136299378956004
        ]
      }
    },
    {
      "type": "Feature",
      "properties": {
        "norad_id": 66598,
        "name": "STARLINK-35981",
        "group": "last-30-days",
        "lat": 8.26767530340282,
        "lon": 154.08406786820123,
        "alt_km": 442.9619227043722,
        "timestamp": "2025-12-20T22:39:09.405725+00:00",
        "meta_object_name": "STARLINK-35981",
        "meta_object_id": "2025-270L",
        "meta_epoch": "2025-12-20T14:00:03.000384",
        "meta_mean_motion": 15.40700692,
        "meta_eccentricity": 0.00020061,
        "meta_inclination": 42.9999,
        "meta_ra_of_asc_node": 147.1909,
        "meta_arg_of_pericenter": 267.8847,
        "meta_mean_anomaly": 262.5067,
        "meta_ephemeris_type": 0,
        "meta_classification_type": "U",
        "meta_norad_cat_id": 66598,
        "meta_element_set_no": 999,
        "meta_rev_at_epoch": 550,
        "meta_bstar": -5.8906864e-05,
        "meta_mean_motion_dot": -2.764e-05,
        "meta_mean_motion_ddot": 0,
        "tle_line1": "1 66598U 25270L   25354.58336806 -.00002764  00000+0 -58907-4 0  9991",
        "tle_line2": "2 66598  42.9999 147.1909 0002006 267.8847 262.5067 15.40700692  5501"
      },
      "geometry": {
        "type": "Point",
        "coordinates": [
          154.08406786820123,
          8.26767530340282
        ]
      }
    },
    {
      "type": "Feature",
      "properties": {
        "norad_id": 66599,
        "name": "STARLINK-35930",
        "group": "last-30-days",
        "lat": 1.6537996120284184,
        "lon": -37.067982877941795,
        "alt_km": 417.09951682472456,
        "timestamp": "2025-12-20T22:39:09.405763+00:00",
        "meta_object_name": "STARLINK-35930",
        "meta_object_id": "2025-270M",
        "meta_epoch": "2025-12-19T04:08:36.625632",
        "meta_mean_motion": 15.50348464,
        "meta_eccentricity": 0.0002903,
        "meta_inclination": 42.9985,
        "meta_ra_of_asc_node": 155.067,
        "meta_arg_of_pericenter": 324.189,
        "meta_mean_anomaly": 35.8775,
        "meta_ephemeris_type": 0,
        "meta_classification_type": "U",
        "meta_norad_cat_id": 66599,
        "meta_element_set_no": 999,
        "meta_rev_at_epoch": 534,
        "meta_bstar": -2.964998e-06,
        "meta_mean_motion_dot": -5.14e-06,
        "meta_mean_motion_ddot": 0,
        "tle_line1": "1 66599U 25270M   25353.17264613 -.00000514  00000+0 -29650-5 0  9997",
        "tle_line2": "2 66599  42.9985 155.0670 0002903 324.1890  35.8775 15.50348464  5346"
      },
      "geometry": {
        "type": "Point",
        "coordinates": [
          -37.067982877941795,
          1.6537996120284184
        ]
      }
    },
    {
      "type": "Feature",
      "properties": {
        "norad_id": 66600,
        "name": "STARLINK-35980",
        "group": "last-30-days",
        "lat": 36.997280489717774,
        "lon": -161.05010686136708,
        "alt_km": 439.23909173389984,
        "timestamp": "2025-12-20T22:39:09.405773+00:00",
        "meta_object_name": "STARLINK-35980",
        "meta_object_id": "2025-270N",
        "meta_epoch": "2025-12-20T14:00:03.000384",
        "meta_mean_motion": 15.40700781,
        "meta_eccentricity": 0.00019334,
        "meta_inclination": 43,
        "meta_ra_of_asc_node": 147.0702,
        "meta_arg_of_pericenter": 273.8019,
        "meta_mean_anomaly": 306.3477,
        "meta_ephemeris_type": 0,
        "meta_classification_type": "U",
        "meta_norad_cat_id": 66600,
        "meta_element_set_no": 999,
        "meta_rev_at_epoch": 556,
        "meta_bstar": -8.910483e-06,
        "meta_mean_motion_dot": -6.76e-06,
        "meta_mean_motion_ddot": 0,
        "tle_line1": "1 66600U 25270N   25354.58336806 -.00000676  00000+0 -89105-5 0  9990",
        "tle_line2": "2 66600  43.0000 147.0702 0001933 273.8019 306.3477 15.40700781  5563"
      },
      "geometry": {
        "type": "Point",
        "coordinates": [
          -161.05010686136708,
          36.997280489717774
        ]
      }
    },
    {
      "type": "Feature",
      "properties": {
        "norad_id": 66601,
        "name": "STARLINK-35978",
        "group": "last-30-days",
        "lat": -24.26099243444279,
        "lon": 116.30411934734876,
        "alt_km": 444.87808641725314,
        "timestamp": "2025-12-20T22:39:09.405782+00:00",
        "meta_object_name": "STARLINK-35978",
        "meta_object_id": "2025-270P",
        "meta_epoch": "2025-12-19T18:48:31.837248",
        "meta_mean_motion": 15.40749629,
        "meta_eccentricity": 0.00015732,
        "meta_inclination": 43.0003,
        "meta_ra_of_asc_node": 151.9165,
        "meta_arg_of_pericenter": 292.4203,
        "meta_mean_anomaly": 67.6487,
        "meta_ephemeris_type": 0,
        "meta_classification_type": "U",
        "meta_norad_cat_id": 66601,
        "meta_element_set_no": 999,
        "meta_rev_at_epoch": 527,
        "meta_bstar": 0.0011909611,
        "meta_mean_motion_dot": 0.00049854,
        "meta_mean_motion_ddot": 0,
        "tle_line1": "1 66601U 25270P   25353.78370182  .00049854  00000+0  11910-2 0  9992",
        "tle_line2": "2 66601  43.0003 151.9165 0001573 292.4203  67.6487 15.40749629  5276"
      },
      "geometry": {
        "type": "Point",
        "coordinates": [
          116.30411934734876,
          -24.26099243444279
        ]
      }
    }
  ]
}